{"type": "FeatureCollection", "features": [ {"type": "Feature", "properties": {"norad_id": 34400, "name": "COSMOS 2251 DEB", "group": "cosmos-2251-debris", "lat": -57.61646496184965, "lon": -108.83267444418692, "alt_km": 423.64721994500906, "timestamp": "2025-12-03T06:58:43.636217+00:00", "meta": {"OBJECT_NAME": "COSMOS 2251 DEB", "OBJECT_ID": "1993-036QR", "EPOCH": "2025-12-02T11:19:37.482240", "MEAN_MOTION": 15.47946914, "ECCENTRICITY": 0.00079431, "INCLINATION": 73.9694, "RA_OF_ASC_NODE": 46.0055, "ARG_OF_PERICENTER": 269.2136, "MEAN_ANOMALY": 90.8166, "EPHEMERIS_TYPE": 0, "CLASSIFICATION_TYPE": "U", "NORAD_CAT_ID": 34400, "ELEMENT_SET_NO": 999, "REV_AT_EPOCH": 89815, "BSTAR": 0.0037859545, "MEAN_MOTION_DOT": 0.0020301, "MEAN_MOTION_DDOT": 0}, "tle": {"line1": "1 34400U 93036QR  25336.47196160  .00203010  00000+0  37860-2 0  9996", "line2": "2 34400  73.9694  46.0055 0007943 269.2136  90.8166 15.47946914898154"}}, "geometry": {"type": "Point", "coordinates": [-108.83267444418692, -57.61646496184965]}}, {"type": "Feature", "properties": {"norad_id": 34409, "name": "COSMOS 2251 DEB", "group": "cosmos-2251-debris", "lat": 59.74912211231854, "lon": -5.877717700924157, "alt_km": 641.4342414627572, "timestamp": "2025-12-03T06:58:43.636227+00:00", "meta": {"OBJECT_NAME": "COSMOS 2251 DEB", "OBJECT_ID": "1993-036RA", "EPOCH": "2025-12-02T18:19:26.272128", "MEAN_MOTION": 14.57987413, "ECCENTRICITY": 0.0079445, "INCLINATION": 74.0627, "RA_OF_ASC_NODE": 325.7849, "ARG_OF_PERICENTER": 42.8423, "MEAN_ANOMALY": 134.3606, "EPHEMERIS_TYPE": 0, "CLASSIFICATION_TYPE": "U", "NORAD_CAT_ID": 34409, "ELEMENT_SET_NO": 999, "REV_AT_EPOCH": 89047, "BSTAR": 0.00030312, "MEAN_MOTION_DOT": 1.423e-05, "MEAN_MOTION_DDOT": 0}, "tle": {"line1": "1 34409U 93036RA  25336.76349852  .00001423  00000+0  30312-3 0  9995", "line2": "2 34409  74.0627 325.7849 0079445  42.8423 134.3606 14.57987413890478"}}, "geometry": {"type": "Point", "coordinates": [-5.877717700924157, 59.74912211231854]}}, {"type": "Feature", "properties": {"norad_id": 34410, "name": "COSMOS 2251 DEB", "group": "cosmos-2251-debris", "lat": -34.06124441481121, "lon": 113.2343052538379, "alt_km": 520.042953210057, "timestamp": "2025-12-03T06:58:43.636237+00:00", "meta": {"OBJECT_NAME": "COSMOS 2251 DEB", "OBJECT_ID": "1993-036RB", "EPOCH": "2025-12-02T14:58:02.866656", "MEAN_MOTION": 15.17368864, "ECCENTRICITY": 0.00207402, "INCLINATION": 73.7387, "RA_OF_ASC_NODE": 283.2705, "ARG_OF_PERICENTER": 124.5103, "MEAN_ANOMALY": 48.0207, "EPHEMERIS_TYPE": 0, "CLASSIFICATION_TYPE": "U", "NORAD_CAT_ID": 34410, "ELEMENT_SET_NO": 999, "REV_AT_EPOCH": 89620, "BSTAR": 0.0031657099, "MEAN_MOTION_DOT": 0.00064109, "MEAN_MOTION_DDOT": 0}, "tle": {"line1": "1 34410U 93036RB  25336.62364429  .00064109  00000+0  31657-2 0  9991", "line2": "2 34410  73.7387 283.2705 0020740 124.5103  48.0207 15.17368864896200"}}, "geometry": {"type": "Point", "coordinates": [113.2343052538379, -34.06124441481121]}}, {"type": "Feature", "properties": {"norad_id": 34412, "name": "COSMOS 2251 DEB", "group": "cosmos-2251-debris", "lat": -68.55108945033115, "lon": -64.74570327391942, "alt_km": 862.9495017269319, "timestamp": "2025-12-03T06:58:43.636248+00:00", "meta": {"OBJECT_NAME": "COSMOS 2251 DEB", "OBJECT_ID": "1993-036RD", "EPOCH": "2025-12-02T09:45:44.412192", "MEAN_MOTION": 14.46977989, "ECCENTRICITY": 0.01871343, "INCLINATION": 73.9481, "RA_OF_ASC_NODE": 344.0396, "ARG_OF_PERICENTER": 81.6153, "MEAN_ANOMALY": 280.6171, "EPHEMERIS_TYPE": 0, "CLASSIFICATION_TYPE": "U", "NORAD_CAT_ID": 34412, "ELEMENT_SET_NO": 999, "REV_AT_EPOCH": 87501, "BSTAR": 0.00095274861, "MEAN_MOTION_DOT": 4.286e-05, "MEAN_MOTION_DDOT": 0}, "tle": {"line1": "1 34412U 93036RD  25336.40676403  .00004286  00000+0  95275-3 0  9994", "line2": "2 34412  73.9481 344.0396 0187134  81.6153 280.6171 14.46977989875015"}}, "geometry": {"type": "Point", "coordinates": [-64.74570327391942, -68.55108945033115]}}, {"type": "Feature", "properties": {"norad_id": 34413, "name": "COSMOS 2251 DEB", "group": "cosmos-2251-debris", "lat": -48.46161388482885, "lon": -96.82017611259718, "alt_km": 760.7122018311957, "timestamp": "2025-12-03T06:58:43.636258+00:00", "meta": {"OBJECT_NAME": "COSMOS 2251 DEB", "OBJECT_ID": "1993-036RE", "EPOCH": "2025-12-02T15:14:26.443392", "MEAN_MOTION": 14.2895192, "ECCENTRICITY": 0.00906465, "INCLINATION": 74.0311, "RA_OF_ASC_NODE": 283.2274, "ARG_OF_PERICENTER": 1.6311, "MEAN_ANOMALY": 176.1097, "EPHEMERIS_TYPE": 0, "CLASSIFICATION_TYPE": "U", "NORAD_CAT_ID": 34413, "ELEMENT_SET_NO": 999, "REV_AT_EPOCH": 86986, "BSTAR": 0.0024258326, "MEAN_MOTION_DOT": 6.388e-05, "MEAN_MOTION_DDOT": 0}, "tle": {"line1": "1 34413U 93036RE  25336.63502828  .00006388  00000+0  24258-2 0  9996", "line2": "2 34413  74.0311 283.2274 0090646   1.6311 176.1097 14.28951920869867"}}, "geometry": {"type": "Point", "coordinates": [-96.82017611259718, -48.46161388482885]}}, {"type": "Feature", "properties": {"norad_id": 34420, "name": "COSMOS 2251 DEB", "group": "cosmos-2251-debris", "lat": 30.56303571426932, "lon": -67.4993305465878, "alt_km": 673.8038204770264, "timestamp": "2025-12-03T06:58:43.636268+00:00", "meta": {"OBJECT_NAME": "COSMOS 2251 DEB", "OBJECT_ID": "1993-036RM", "EPOCH": "2025-12-02T21:04:34.638816", "MEAN_MOTION": 14.68248362, "ECCENTRICITY": 0.0106978, "INCLINATION": 74.0318, "RA_OF_ASC_NODE": 123.0333, "ARG_OF_PERICENTER": 246.4218, "MEAN_ANOMALY": 242.7712, "EPHEMERIS_TYPE": 0, "CLASSIFICATION_TYPE": "U", "NORAD_CAT_ID": 34420, "ELEMENT_SET_NO": 999, "REV_AT_EPOCH": 89625, "BSTAR": 0.00031395, "MEAN_MOTION_DOT": 1.937e-05, "MEAN_MOTION_DDOT": 0}, "tle": {"line1": "1 34420U 93036RM  25336.87817869  .00001937  00000+0  31395-3 0  9990", "line2": "2 34420  74.0318 123.0333 0106978 246.4218 242.7712 14.68248362896250"}}, "geometry": {"type": "Point", "coordinates": [-67.4993305465878, 30.56303571426932]}}, {"type": "Feature", "properties": {"norad_id": 34425, "name": "COSMOS 2251 DEB", "group": "cosmos-2251-debris", "lat": 73.67101272668499, "lon": 150.6086532565872, "alt_km": 686.6548172391231, "timestamp": "2025-12-03T06:58:43.636278+00:00", "meta": {"OBJECT_NAME": "COSMOS 2251 DEB", "OBJECT_ID": "1993-036RS", "EPOCH": "2025-12-02T17:26:40.094016", "MEAN_MOTION": 14.62025493, "ECCENTRICITY": 0.0025559, "INCLINATION": 74.0204, "RA_OF_ASC_NODE": 73.7056, "ARG_OF_PERICENTER": 202.3098, "MEAN_ANOMALY": 157.6959, "EPHEMERIS_TYPE": 0, "CLASSIFICATION_TYPE": "U", "NORAD_CAT_ID": 34425, "ELEMENT_SET_NO": 999, "REV_AT_EPOCH": 88594, "BSTAR": 0.00090564, "MEAN_MOTION_DOT": 4.537e-05, "MEAN_MOTION_DDOT": 0}, "tle": {"line1": "1 34425U 93036RS  25336.72685294  .00004537  00000+0  90564-3 0  9996", "line2": "2 34425  74.0204  73.7056 0025559 202.3098 157.6959 14.62025493885947"}}, "geometry": {"type": "Point", "coordinates": [150.6086532565872, 73.67101272668499]}}, {"type": "Feature", "properties": {"norad_id": 34429, "name": "COSMOS 2251 DEB", "group": "cosmos-2251-debris", "lat": 40.81744220205574, "lon": -157.13656691709895, "alt_km": 448.1655188827772, "timestamp": "2025-12-03T06:58:43.636289+00:00", "meta": {"OBJECT_NAME": "COSMOS 2251 DEB", "OBJECT_ID": "1993-036RW", "EPOCH": "2025-12-02T15:26:17.714976", "MEAN_MOTION": 15.36606034, "ECCENTRICITY": 0.00055118, "INCLINATION": 73.9721, "RA_OF_ASC_NODE": 189.8839, "ARG_OF_PERICENTER": 40.4949, "MEAN_ANOMALY": 21.7864, "EPHEMERIS_TYPE": 0, "CLASSIFICATION_TYPE": "U", "NORAD_CAT_ID": 34429, "ELEMENT_SET_NO": 999, "REV_AT_EPOCH": 89293, "BSTAR": 0.0049281438, "MEAN_MOTION_DOT": 0.00180507, "MEAN_MOTION_DDOT": 0}, "tle": {"line1": "1 34429U 93036RW  25336.64326059  .00180507  00000+0  49281-2 0  9993", "line2": "2 34429  73.9721 189.8839 0005511  40.4949  21.7864 15.36606034892934"}}, "geometry": {"type": "Point", "coordinates": [-157.13656691709895, 40.81744220205574]}}, {"type": "Feature", "properties": {"norad_id": 34430, "name": "COSMOS 2251 DEB", "group": "cosmos-2251-debris", "lat": -73.95471692495353, "lon": -123.09463201645478, "alt_km": 788.7776382181264, "timestamp": "2025-12-03T06:58:43.636299+00:00", "meta": {"OBJECT_NAME": "COSMOS 2251 DEB", "OBJECT_ID": "1993-036RX", "EPOCH": "2025-12-02T09:42:20.857248", "MEAN_MOTION": 14.39579125, "ECCENTRICITY": 0.00598494, "INCLINATION": 74.051, "RA_OF_ASC_NODE": 322.4311, "ARG_OF_PERICENTER": 34.7279, "MEAN_ANOMALY": 325.7759, "EPHEMERIS_TYPE": 0, "CLASSIFICATION_TYPE": "U", "NORAD_CAT_ID": 34430, "ELEMENT_SET_NO": 999, "REV_AT_EPOCH": 87806, "BSTAR": 0.00059798163, "MEAN_MOTION_DOT": 1.881e-05, "MEAN_MOTION_DDOT": 0}, "tle": {"line1": "1 34430U 93036RX  25336.40440807  .00001881  00000+0  59798-3 0  9999", "line2": "2 34430  74.0510 322.4311 0059849  34.7279 325.7759 14.39579125878069"}}, "geometry": {"type": "Point", "coordinates": [-123.09463201645478, -73.95471692495353]}}, {"type": "Feature", "properties": {"norad_id": 34431, "name": "COSMOS 2251 DEB", "group": "cosmos-2251-debris", "lat": -3.103879245763668, "lon": 13.189521551357936, "alt_km": 749.6749448407136, "timestamp": "2025-12-03T06:58:43.636309+00:00", "meta": {"OBJECT_NAME": "COSMOS 2251 DEB", "OBJECT_ID": "1993-036RY", "EPOCH": "2025-12-02T08:16:41.445696", "MEAN_MOTION": 14.28725005, "ECCENTRICITY": 0.00687913, "INCLINATION": 74.0741, "RA_OF_ASC_NODE": 194.0138, "ARG_OF_PERICENTER": 182.509, "MEAN_ANOMALY": 177.5725, "EPHEMERIS_TYPE": 0, "CLASSIFICATION_TYPE": "U", "NORAD_CAT_ID": 34431, "ELEMENT_SET_NO": 999, "REV_AT_EPOCH": 86994, "BSTAR": 0.00069891651, "MEAN_MOTION_DOT": 1.779e-05, "MEAN_MOTION_DDOT": 0}, "tle": {"line1": "1 34431U 93036RY  25336.34492414  .00001779  00000+0  69892-3 0  9996", "line2": "2 34431  74.0741 194.0138 0068791 182.5090 177.5725 14.28725005869946"}}, "geometry": {"type": "Point", "coordinates": [13.189521551357936, -3.103879245763668]}}]}